{"fetched_at":"2026-07-21T17:53:08.726Z","source":"https://celestrak.org/NORAD/elements/gp.php?GROUP=qianfan&FORMAT=JSON","constellation":"qianfan","records":[{"OBJECT_NAME":"QIANFAN-177","OBJECT_ID":"2026-124N","EPOCH":"2026-07-21T03:55:17.683104","CLASSIFICATION_TYPE":"U","MEAN_MOTION":13.88632133,"ECCENTRICITY":0.00093017,"INCLINATION":88.9997,"RA_OF_ASC_NODE":358.2171,"ARG_OF_PERICENTER":50.7017,"MEAN_ANOMALY":309.4979,"EPHEMERIS_TYPE":0,"NORAD_CAT_ID":69394,"ELEMENT_SET_NO":999,"REV_AT_EPOCH":661,"BSTAR":0.000027423764,"MEAN_MOTION_DOT":4.6e-7,"MEAN_MOTION_DDOT":0},{"OBJECT_NAME":"QIANFAN-178","OBJECT_ID":"2026-124P","EPOCH":"2026-07-21T01:47:17.568096","CLASSIFICATION_TYPE":"U","MEAN_MOTION":13.91696703,"ECCENTRICITY":0.00079444,"INCLINATION":88.9968,"RA_OF_ASC_NODE":358.2164,"ARG_OF_PERICENTER":59.8958,"MEAN_ANOMALY":300.3002,"EPHEMERIS_TYPE":0,"NORAD_CAT_ID":69395,"ELEMENT_SET_NO":999,"REV_AT_EPOCH":660,"BSTAR":0.000025185846,"MEAN_MOTION_DOT":4.5e-7,"MEAN_MOTION_DDOT":0},{"OBJECT_NAME":"QIANFAN-179","OBJECT_ID":"2026-124Q","EPOCH":"2026-07-21T01:26:53.563488","CLASSIFICATION_TYPE":"U","MEAN_MOTION":13.91555502,"ECCENTRICITY":0.0005943,"INCLINATION":88.9953,"RA_OF_ASC_NODE":358.227,"ARG_OF_PERICENTER":68.2619,"MEAN_ANOMALY":291.9187,"EPHEMERIS_TYPE":0,"NORAD_CAT_ID":69396,"ELEMENT_SET_NO":999,"REV_AT_EPOCH":660,"BSTAR":0.000025801141,"MEAN_MOTION_DOT":4.6e-7,"MEAN_MOTION_DDOT":0},{"OBJECT_NAME":"QIANFAN-180","OBJECT_ID":"2026-124R","EPOCH":"2026-07-21T05:10:10.064928","CLASSIFICATION_TYPE":"U","MEAN_MOTION":13.89090804,"ECCENTRICITY":0.00079709,"INCLINATION":89.0002,"RA_OF_ASC_NODE":358.2072,"ARG_OF_PERICENTER":52.969,"MEAN_ANOMALY":307.221,"EPHEMERIS_TYPE":0,"NORAD_CAT_ID":69397,"ELEMENT_SET_NO":999,"REV_AT_EPOCH":662,"BSTAR":0.000026404176,"MEAN_MOTION_DOT":4.5e-7,"MEAN_MOTION_DDOT":0},{"OBJECT_NAME":"QIANFAN-181","OBJECT_ID":"2026-124S","EPOCH":"2026-07-21T03:22:03.617760","CLASSIFICATION_TYPE":"U","MEAN_MOTION":13.79982933,"ECCENTRICITY":0.00065831,"INCLINATION":89.0009,"RA_OF_ASC_NODE":358.2679,"ARG_OF_PERICENTER":46.2328,"MEAN_ANOMALY":313.9383,"EPHEMERIS_TYPE":0,"NORAD_CAT_ID":69398,"ELEMENT_SET_NO":999,"REV_AT_EPOCH":658,"BSTAR":0.000030982867,"MEAN_MOTION_DOT":4.5e-7,"MEAN_MOTION_DDOT":0},{"OBJECT_NAME":"QIANFAN-182","OBJECT_ID":"2026-124T","EPOCH":"2026-07-21T03:41:54.939840","CLASSIFICATION_TYPE":"U","MEAN_MOTION":13.80395396,"ECCENTRICITY":0.00090463,"INCLINATION":88.9998,"RA_OF_ASC_NODE":358.2521,"ARG_OF_PERICENTER":56.912,"MEAN_ANOMALY":303.2915,"EPHEMERIS_TYPE":0,"NORAD_CAT_ID":69399,"ELEMENT_SET_NO":999,"REV_AT_EPOCH":658,"BSTAR":0.000031960971,"MEAN_MOTION_DOT":4.6e-7,"MEAN_MOTION_DDOT":0},{"OBJECT_NAME":"QIANFAN-183","OBJECT_ID":"2026-125A","EPOCH":"2026-07-20T20:44:50.013600","CLASSIFICATION_TYPE":"U","MEAN_MOTION":13.84286954,"ECCENTRICITY":0.00203929,"INCLINATION":88.9935,"RA_OF_ASC_NODE":276.6831,"ARG_OF_PERICENTER":81.7743,"MEAN_ANOMALY":278.5739,"EPHEMERIS_TYPE":0,"NORAD_CAT_ID":69401,"ELEMENT_SET_NO":999,"REV_AT_EPOCH":644,"BSTAR":-1.6286459,"MEAN_MOTION_DOT":-0.01698976,"MEAN_MOTION_DDOT":0},{"OBJECT_NAME":"QIANFAN-184","OBJECT_ID":"2026-125B","EPOCH":"2026-07-20T19:00:46.532736","CLASSIFICATION_TYPE":"U","MEAN_MOTION":13.82506573,"ECCENTRICITY":0.00255258,"INCLINATION":88.9941,"RA_OF_ASC_NODE":276.6925,"ARG_OF_PERICENTER":66.5149,"MEAN_ANOMALY":293.8699,"EPHEMERIS_TYPE":0,"NORAD_CAT_ID":69402,"ELEMENT_SET_NO":999,"REV_AT_EPOCH":643,"BSTAR":-1.9128188,"MEAN_MOTION_DOT":-0.01941727,"MEAN_MOTION_DDOT":0},{"OBJECT_NAME":"QIANFAN-185","OBJECT_ID":"2026-125C","EPOCH":"2026-07-20T21:12:15.720192","CLASSIFICATION_TYPE":"U","MEAN_MOTION":13.96037045,"ECCENTRICITY":0.0024229,"INCLINATION":88.9936,"RA_OF_ASC_NODE":276.6684,"ARG_OF_PERICENTER":58.1545,"MEAN_ANOMALY":302.1985,"EPHEMERIS_TYPE":0,"NORAD_CAT_ID":69403,"ELEMENT_SET_NO":999,"REV_AT_EPOCH":645,"BSTAR":-1.657036,"MEAN_MOTION_DOT":-0.02109727,"MEAN_MOTION_DDOT":0},{"OBJECT_NAME":"QIANFAN-186","OBJECT_ID":"2026-125D","EPOCH":"2026-07-20T22:10:24.268800","CLASSIFICATION_TYPE":"U","MEAN_MOTION":13.82065562,"ECCENTRICITY":0.00224341,"INCLINATION":88.9934,"RA_OF_ASC_NODE":276.6743,"ARG_OF_PERICENTER":76.4169,"MEAN_ANOMALY":283.9496,"EPHEMERIS_TYPE":0,"NORAD_CAT_ID":69404,"ELEMENT_SET_NO":999,"REV_AT_EPOCH":645,"BSTAR":-2.0200299,"MEAN_MOTION_DOT":-0.02028159,"MEAN_MOTION_DDOT":0},{"OBJECT_NAME":"QIANFAN-187","OBJECT_ID":"2026-125E","EPOCH":"2026-07-20T21:26:18.333600","CLASSIFICATION_TYPE":"U","MEAN_MOTION":13.82613406,"ECCENTRICITY":0.00257059,"INCLINATION":88.994,"RA_OF_ASC_NODE":276.6688,"ARG_OF_PERICENTER":69.576,"MEAN_ANOMALY":290.8166,"EPHEMERIS_TYPE":0,"NORAD_CAT_ID":69405,"ELEMENT_SET_NO":999,"REV_AT_EPOCH":645,"BSTAR":-1.8230054,"MEAN_MOTION_DOT":-0.01839799,"MEAN_MOTION_DDOT":0},{"OBJECT_NAME":"QIANFAN-188","OBJECT_ID":"2026-125F","EPOCH":"2026-07-20T22:17:22.141536","CLASSIFICATION_TYPE":"U","MEAN_MOTION":13.86157641,"ECCENTRICITY":0.00194337,"INCLINATION":88.9929,"RA_OF_ASC_NODE":276.6541,"ARG_OF_PERICENTER":61.5154,"MEAN_ANOMALY":298.7971,"EPHEMERIS_TYPE":0,"NORAD_CAT_ID":69406,"ELEMENT_SET_NO":999,"REV_AT_EPOCH":646,"BSTAR":-1.9718442,"MEAN_MOTION_DOT":-0.02114644,"MEAN_MOTION_DDOT":0},{"OBJECT_NAME":"QIANFAN-189","OBJECT_ID":"2026-125G","EPOCH":"2026-07-20T22:41:39.065856","CLASSIFICATION_TYPE":"U","MEAN_MOTION":13.84669234,"ECCENTRICITY":0.0022741,"INCLINATION":88.9936,"RA_OF_ASC_NODE":276.6585,"ARG_OF_PERICENTER":70.4701,"MEAN_ANOMALY":289.8923,"EPHEMERIS_TYPE":0,"NORAD_CAT_ID":69407,"ELEMENT_SET_NO":999,"REV_AT_EPOCH":645,"BSTAR":-1.6662776,"MEAN_MOTION_DOT":-0.0174683,"MEAN_MOTION_DDOT":0},{"OBJECT_NAME":"QIANFAN-190","OBJECT_ID":"2026-125H","EPOCH":"2026-07-21T01:56:57.736320","CLASSIFICATION_TYPE":"U","MEAN_MOTION":13.9034508,"ECCENTRICITY":0.00204363,"INCLINATION":88.9941,"RA_OF_ASC_NODE":276.6418,"ARG_OF_PERICENTER":62.8914,"MEAN_ANOMALY":297.4341,"EPHEMERIS_TYPE":0,"NORAD_CAT_ID":69408,"ELEMENT_SET_NO":999,"REV_AT_EPOCH":648,"BSTAR":0.000007964186,"MEAN_MOTION_DOT":2.3e-7,"MEAN_MOTION_DDOT":0},{"OBJECT_NAME":"QIANFAN-191","OBJECT_ID":"2026-125J","EPOCH":"2026-07-20T23:55:11.583840","CLASSIFICATION_TYPE":"U","MEAN_MOTION":13.87728832,"ECCENTRICITY":0.00198104,"INCLINATION":88.9942,"RA_OF_ASC_NODE":276.6472,"ARG_OF_PERICENTER":63.8123,"MEAN_ANOMALY":296.5083,"EPHEMERIS_TYPE":0,"NORAD_CAT_ID":69409,"ELEMENT_SET_NO":999,"REV_AT_EPOCH":647,"BSTAR":0.000014855288,"MEAN_MOTION_DOT":3.1e-7,"MEAN_MOTION_DDOT":0},{"OBJECT_NAME":"QIANFAN-192","OBJECT_ID":"2026-125K","EPOCH":"2026-07-20T21:52:02.888256","CLASSIFICATION_TYPE":"U","MEAN_MOTION":13.88380533,"ECCENTRICITY":0.00207742,"INCLINATION":88.9946,"RA_OF_ASC_NODE":276.6536,"ARG_OF_PERICENTER":59.2453,"MEAN_ANOMALY":301.0761,"EPHEMERIS_TYPE":0,"NORAD_CAT_ID":69410,"ELEMENT_SET_NO":999,"REV_AT_EPOCH":646,"BSTAR":0.000016050145,"MEAN_MOTION_DOT":3.3e-7,"MEAN_MOTION_DDOT":0}]}
