QIANFAN-177             
1 69394U 26124N   26202.16339911  .00000046  00000+0  27424-4 0  9993
2 69394  88.9997 358.2171 0009301  50.7017 309.4979 13.88632133  6615
QIANFAN-178             
1 69395U 26124P   26202.07450889  .00000045  00000+0  25186-4 0  9994
2 69395  88.9968 358.2164 0007944  59.8958 300.3002 13.91696703  6604
QIANFAN-179             
1 69396U 26124Q   26202.06034217  .00000046  00000+0  25801-4 0  9992
2 69396  88.9953 358.2270 0005943  68.2619 291.9187 13.91555502  6602
QIANFAN-180             
1 69397U 26124R   26202.21539427  .00000045  00000+0  26404-4 0  9992
2 69397  89.0002 358.2072 0007970  52.9690 307.2210 13.89090804  6627
QIANFAN-181             
1 69398U 26124S   26202.14031965  .00000045  00000+0  30983-4 0  9996
2 69398  89.0009 358.2679 0006583  46.2328 313.9383 13.79982933  6583
QIANFAN-182             
1 69399U 26124T   26202.15410810  .00000046  00000+0  31961-4 0  9996
2 69399  88.9998 358.2521 0009046  56.9120 303.2915 13.80395396  6586
QIANFAN-183             
1 69401U 26125A   26201.86446775 -.01698976  00000+0 -16286+1 0  9994
2 69401  88.9935 276.6831 0020392  81.7743 278.5739 13.84286954  6448
QIANFAN-184             
1 69402U 26125B   26201.79220524 -.01941727  00000+0 -19128+1 0  9992
2 69402  88.9941 276.6925 0025525  66.5149 293.8699 13.82506573  6438
QIANFAN-185             
1 69403U 26125C   26201.88351528 -.02109727  00000+0 -16570+1 0  9997
2 69403  88.9936 276.6684 0024229  58.1545 302.1985 13.96037045  6454
QIANFAN-186             
1 69404U 26125D   26201.92389200 -.02028159  00000+0 -20200+1 0  9995
2 69404  88.9934 276.6743 0022434  76.4169 283.9496 13.82065562  6453
QIANFAN-187             
1 69405U 26125E   26201.89326775 -.01839799  00000+0 -18230+1 0  9999
2 69405  88.9940 276.6688 0025705  69.5760 290.8166 13.82613406  6450
QIANFAN-188             
1 69406U 26125F   26201.92872849 -.02114644  00000+0 -19718+1 0  9990
2 69406  88.9929 276.6541 0019433  61.5154 298.7971 13.86157641  6466
QIANFAN-189             
1 69407U 26125G   26201.94559104 -.01746830  00000+0 -16663+1 0  9992
2 69407  88.9936 276.6585 0022741  70.4701 289.8923 13.84669234  6457
QIANFAN-190             
1 69408U 26125H   26202.08122380  .00000023  00000+0  79642-5 0  9996
2 69408  88.9941 276.6418 0020436  62.8914 297.4341 13.90345080  6488
QIANFAN-191             
1 69409U 26125J   26201.99666185  .00000031  00000+0  14855-4 0  9995
2 69409  88.9942 276.6472 0019810  63.8123 296.5083 13.87728832  6475
QIANFAN-192             
1 69410U 26125K   26201.91114454  .00000033  00000+0  16050-4 0  9997
2 69410  88.9946 276.6536 0020774  59.2453 301.0761 13.88380533  6465
